IRIDIUM 36              
1 24967U 97056C   24157.49342444  .00000819  00000+0  27081-3 0  9996
2 24967  86.3954 331.2054 0002225  94.2606 265.8846 14.36828322398111
IRIDIUM 42              
1 25077U 97077A   24157.40416612  .00000643  00000+0  21666-3 0  9990
2 25077  86.3983  37.3206 0001562  83.1525 276.9849 14.35582336387125
IRIDIUM 45              
1 25104U 97082A   24157.43422170  .00010667  00000+0  60056-3 0  9999
2 25104  86.3766 227.7628 0157071 281.9861  76.3804 15.03104139395091
IRIDIUM 24              
1 25105U 97082B   24157.49891344  .00000882  00000+0  26721-3 0  9998
2 25105  86.3928 239.8153 0009673 234.9683 125.0610 14.41202595388942
IRIDIUM 51              
1 25262U 98018A   24157.25942819  .00018002  00000+0  83898-3 0  9991
2 25262  86.3978 237.7002 0144362 226.0862 132.8388 15.10870467389616
